IRIDIUM 7               
1 24793U 97020B   25354.01775240  .00000288  00000+0  92209-4 0  9991
2 24793  86.3959  99.0455 0001867 103.3387 256.8018 14.36111544498568
IRIDIUM 5               
1 24795U 97020D   25354.07814514  .00002832  00000+0  22037-3 0  9995
2 24795  86.3872 357.8662 0103792 188.6147 171.3307 14.96565423513249
IRIDIUM 4               
1 24796U 97020E   25354.02386301  .00000305  00000+0  96334-4 0  9994
2 24796  86.3956  95.7950 0001962  96.9199 263.2222 14.37017734499157
IRIDIUM 914             
1 24836U 97030A   25354.06140962  .00000350  00000+0  10263-3 0  9991
2 24836  86.3937 103.8343 0001629  46.8572 313.2763 14.41075362633890
IRIDIUM 16              
1 24841U 97030F   25354.09267194  .00000338  00000+0  10344-3 0  9993
2 24841  86.4040 127.2263 0003174 136.1837 223.9614 14.38894589493732
IRIDIUM 911             
1 24842U 97030G   25354.10993205  .00000471  00000+0  12144-3 0  9993
2 24842  86.4463 125.7835 0013791 189.4353 170.6594 14.47902577501989
IRIDIUM 17              
1 24870U 97034B   25353.98393279  .00000351  00000+0  10962-3 0  9991
2 24870  86.3974 156.6915 0003498 106.7838 253.3744 14.38030047490281
IRIDIUM 920             
1 24871U 97034C   25354.10491345  .00000386  00000+0  11223-3 0  9999
2 24871  86.3984 135.4485 0011523 178.2334 181.8909 14.41735536493362
